[{"OBJECT_NAME":"STARLINK-34412","OBJECT_ID":"2025-237U","EPOCH":"2026-03-09T07:28:26.479776","MEAN_MOTION":15.30203193,"ECCENTRICITY":0.00010419,"INCLINATION":53.1637,"RA_OF_ASC_NODE":41.3082,"ARG_OF_PERICENTER":91.6186,"MEAN_ANOMALY":268.4935,"EPHEMERIS_TYPE":0,"CLASSIFICATION_TYPE":"U","NORAD_CAT_ID":66132,"ELEMENT_SET_NO":999,"REV_AT_EPOCH":2246,"BSTAR":0.00095381907,"MEAN_MOTION_DOT":0.00027999,"MEAN_MOTION_DDOT":0},{"OBJECT_NAME":"CZ-6A DEB","OBJECT_ID":"2024-140PU","EPOCH":"2026-03-09T02:24:11.901600","MEAN_MOTION":14.96529453,"ECCENTRICITY":0.01989751,"INCLINATION":89.1479,"RA_OF_ASC_NODE":289.7131,"ARG_OF_PERICENTER":96.8489,"MEAN_ANOMALY":265.5425,"EPHEMERIS_TYPE":0,"CLASSIFICATION_TYPE":"U","NORAD_CAT_ID":61126,"ELEMENT_SET_NO":999,"REV_AT_EPOCH":8404,"BSTAR":0.00070354239,"MEAN_MOTION_DOT":0.00012037,"MEAN_MOTION_DDOT":0}]
